start=new Date('2022-03-27T00:00:00.000Z').valueOf();
sats=[{"PERIAPSIS":"546.051","APOAPSIS":"548.384","OBJECT_TYPE":"PAYLOAD","MEAN_ANOMALY":"298.1928","FILE":"3375650","BSTAR":"0.00006681000000","SEMIMAJOR_AXIS":"6925.352","EPHEMERIS_TYPE":"0","CLASSIFICATION_TYPE":"U","TIME_SYSTEM":"UTC","COUNTRY_CODE":"US","OBJECT_ID":"2020-055AU","LAUNCH_DATE":"2020-08-07","TLE_LINE2":"2 46069  53.0549  98.6559 0001685  61.9232 298.1928 15.06398722 91684","MEAN_MOTION":"15.06398722","ECCENTRICITY":"0.00016850","MEAN_ELEMENT_THEORY":"SGP4","ELEMENT_SET_NO":"999","NORAD_CAT_ID":"46069","REV_AT_EPOCH":"9168","DECAY_DATE":null,"MEAN_MOTION_DOT":"0.00000714","PERIOD":"95.592","RA_OF_ASC_NODE":"98.6559","TLE_LINE1":"1 46069U 20055AU  22085.76126438  .00000714  00000-0  66810-4 0  9998","ARG_OF_PERICENTER":"61.9232","CENTER_NAME":"EARTH","RCS_SIZE":"LARGE","INCLINATION":"53.0549","SITE":"AFETR","REF_FRAME":"TEME","OBJECT_NAME":"STARLINK-1533","EPOCH":"2022-03-26T18:16:13.242432","GP_ID":"199778352","MEAN_MOTION_DDOT":"0.0000000000000"},{"MEAN_MOTION":"15.06397533","ECCENTRICITY":"0.00015930","MEAN_ELEMENT_THEORY":"SGP4","ELEMENT_SET_NO":"999","DECAY_DATE":null,"REV_AT_EPOCH":"9163","PERIOD":"95.592","RA_OF_ASC_NODE":"100.0790","MEAN_MOTION_DOT":"-0.00001086","NORAD_CAT_ID":"46070","CENTER_NAME":"EARTH","RCS_SIZE":"LARGE","TLE_LINE1":"1 46070U 20055AV  22085.44427766 -.00001086  00000-0 -54008-4 0  9994","ARG_OF_PERICENTER":"69.7793","INCLINATION":"53.0560","REF_FRAME":"TEME","SITE":"AFETR","MEAN_MOTION_DDOT":"0.0000000000000","OBJECT_NAME":"STARLINK-1536","GP_ID":"199744156","EPOCH":"2022-03-26T10:39:45.589824","MEAN_ANOMALY":"290.3367","APOAPSIS":"548.324","PERIAPSIS":"546.118","OBJECT_TYPE":"PAYLOAD","BSTAR":"-0.00005400800000","FILE":"3375254","SEMIMAJOR_AXIS":"6925.356","EPHEMERIS_TYPE":"0","TIME_SYSTEM":"UTC","CLASSIFICATION_TYPE":"U","COUNTRY_CODE":"US","OBJECT_ID":"2020-055AV","LAUNCH_DATE":"2020-08-07","TLE_LINE2":"2 46070  53.0560 100.0790 0001593  69.7793 290.3367 15.06397533 91635"},{"MEAN_MOTION_DDOT":"0.0000000000000","EPOCH":"2022-03-26T17:28:26.725440","GP_ID":"199776850","OBJECT_NAME":"STARLINK-1538","SITE":"AFETR","REF_FRAME":"TEME","INCLINATION":"53.0526","RCS_SIZE":"LARGE","CENTER_NAME":"EARTH","ARG_OF_PERICENTER":"46.2276","TLE_LINE1":"1 46071U 20055AW  22085.72808710  .00001005  00000-0  86349-4 0  9990","PERIOD":"95.592","MEAN_MOTION_DOT":"0.00001005","RA_OF_ASC_NODE":"98.8039","DECAY_DATE":null,"REV_AT_EPOCH":"9167","NORAD_CAT_ID":"46071","ELEMENT_SET_NO":"999","MEAN_ELEMENT_THEORY":"SGP4","ECCENTRICITY":"0.00017070","MEAN_MOTION":"15.06403431","TLE_LINE2":"2 46071  53.0526  98.8039 0001707  46.2276 313.8854 15.06403431 91672","OBJECT_ID":"2020-055AW","LAUNCH_DATE":"2020-08-07","COUNTRY_CODE":"US","TIME_SYSTEM":"UTC","CLASSIFICATION_TYPE":"U","EPHEMERIS_TYPE":"0","SEMIMAJOR_AXIS":"6925.338","BSTAR":"0.00008634900000","FILE":"3375650","MEAN_ANOMALY":"313.8854","OBJECT_TYPE":"PAYLOAD","APOAPSIS":"548.385","PERIAPSIS":"546.021"},{"RCS_SIZE":"LARGE","CENTER_NAME":"EARTH","ARG_OF_PERICENTER":"48.2539","TLE_LINE1":"1 46072U 20055AX  22085.75294312  .00001341  00000-0  10891-3 0  9992","RA_OF_ASC_NODE":"98.7082","PERIOD":"95.592","MEAN_MOTION_DOT":"0.00001341","REV_AT_EPOCH":"9166","DECAY_DATE":null,"NORAD_CAT_ID":"46072","MEAN_MOTION_DDOT":"0.0000000000000","EPOCH":"2022-03-26T18:04:14.285568","GP_ID":"199777601","OBJECT_NAME":"STARLINK-1539","REF_FRAME":"TEME","SITE":"AFETR","INCLINATION":"53.0563","MEAN_MOTION":"15.06407307","ELEMENT_SET_NO":"999","ECCENTRICITY":"0.00019450","MEAN_ELEMENT_THEORY":"SGP4","COUNTRY_CODE":"US","TIME_SYSTEM":"UTC","CLASSIFICATION_TYPE":"U","TLE_LINE2":"2 46072  53.0563  98.7082 0001945  48.2539 311.8616 15.06407307 91668","OBJECT_ID":"2020-055AX","LAUNCH_DATE":"2020-08-07","MEAN_ANOMALY":"311.8616","OBJECT_TYPE":"PAYLOAD","APOAPSIS":"548.538","PERIAPSIS":"545.844","EPHEMERIS_TYPE":"0","SEMIMAJOR_AXIS":"6925.326","BSTAR":"0.00010891000000","FILE":"3375650"},{"MEAN_MOTION_DDOT":"0.0000000000000","OBJECT_NAME":"STARLINK-1542","GP_ID":"199743906","EPOCH":"2022-03-26T07:18:03.523680","INCLINATION":"53.0544","SITE":"AFETR","REF_FRAME":"TEME","CENTER_NAME":"EARTH","RCS_SIZE":"LARGE","TLE_LINE1":"1 46073U 20055AY  22085.30420745  .00001001  00000-0  86066-4 0  9996","ARG_OF_PERICENTER":"54.8577","REV_AT_EPOCH":"9160","DECAY_DATE":null,"MEAN_MOTION_DOT":"0.00001001","PERIOD":"95.592","RA_OF_ASC_NODE":"100.7250","NORAD_CAT_ID":"46073","ELEMENT_SET_NO":"999","MEAN_ELEMENT_THEORY":"SGP4","ECCENTRICITY":"0.00017810","MEAN_MOTION":"15.06400329","OBJECT_ID":"2020-055AY","LAUNCH_DATE":"2020-08-07","TLE_LINE2":"2 46073  53.0544 100.7250 0001781  54.8577 305.2579 15.06400329 91608","COUNTRY_CODE":"US","TIME_SYSTEM":"UTC","CLASSIFICATION_TYPE":"U","SEMIMAJOR_AXIS":"6925.348","EPHEMERIS_TYPE":"0","FILE":"3375254","BSTAR":"0.00008606600000","MEAN_ANOMALY":"305.2579","APOAPSIS":"548.446","PERIAPSIS":"545.979","OBJECT_TYPE":"PAYLOAD"},{"ARG_OF_PERICENTER":"47.0866","TLE_LINE1":"1 46074U 20055AZ  22085.75389472 -.00001576  00000-0 -86931-4 0  9997","RCS_SIZE":"LARGE","CENTER_NAME":"EARTH","NORAD_CAT_ID":"46074","MEAN_MOTION_DOT":"-0.00001576","PERIOD":"95.592","RA_OF_ASC_NODE":"98.6915","DECAY_DATE":null,"REV_AT_EPOCH":"9166","GP_ID":"199778603","EPOCH":"2022-03-26T18:05:36.503808","OBJECT_NAME":"STARLINK-1549","MEAN_MOTION_DDOT":"0.0000000000000","SITE":"AFETR","REF_FRAME":"TEME","INCLINATION":"53.0537","MEAN_MOTION":"15.06403545","ELEMENT_SET_NO":"999","ECCENTRICITY":"0.00019990","MEAN_ELEMENT_THEORY":"SGP4","COUNTRY_CODE":"US","CLASSIFICATION_TYPE":"U","TIME_SYSTEM":"UTC","TLE_LINE2":"2 46074  53.0537  98.6915 0001999  47.0866 313.0291 15.06403545 91667","OBJECT_ID":"2020-055AZ","LAUNCH_DATE":"2020-08-07","OBJECT_TYPE":"PAYLOAD","PERIAPSIS":"545.818","APOAPSIS":"548.587","MEAN_ANOMALY":"313.0291","EPHEMERIS_TYPE":"0","SEMIMAJOR_AXIS":"6925.338","FILE":"3375650","BSTAR":"-0.00008693100000"},{"COUNTRY_CODE":"US","TIME_SYSTEM":"UTC","CLASSIFICATION_TYPE":"U","LAUNCH_DATE":"2020-08-07","OBJECT_ID":"2020-055BA","TLE_LINE2":"2 46075  53.0533 100.0660 0001923  53.4461 306.6705 15.06402188 91624","MEAN_ANOMALY":"306.6705","PERIAPSIS":"545.875","APOAPSIS":"548.539","OBJECT_TYPE":"PAYLOAD","SEMIMAJOR_AXIS":"6925.342","EPHEMERIS_TYPE":"0","FILE":"3375254","BSTAR":"0.00005860600000","CENTER_NAME":"EARTH","RCS_SIZE":"LARGE","TLE_LINE1":"1 46075U 20055BA  22085.44795669  .00000591  00000-0  58606-4 0  9995","ARG_OF_PERICENTER":"53.4461","REV_AT_EPOCH":"9162","DECAY_DATE":null,"MEAN_MOTION_DOT":"0.00000591","PERIOD":"95.592","RA_OF_ASC_NODE":"100.0660","NORAD_CAT_ID":"46075","MEAN_MOTION_DDOT":"0.0000000000000","OBJECT_NAME":"STARLINK-1551","EPOCH":"2022-03-26T10:45:03.458016","GP_ID":"199743405","INCLINATION":"53.0533","SITE":"AFETR","REF_FRAME":"TEME","MEAN_MOTION":"15.06402188","ELEMENT_SET_NO":"999","MEAN_ELEMENT_THEORY":"SGP4","ECCENTRICITY":"0.00019230"},{"ECCENTRICITY":"0.00019630","MEAN_ELEMENT_THEORY":"SGP4","ELEMENT_SET_NO":"999","MEAN_MOTION":"15.06410539","REF_FRAME":"TEME","SITE":"AFETR","INCLINATION":"53.0544","MEAN_MOTION_DDOT":"0.0000000000000","GP_ID":"199777101","EPOCH":"2022-03-26T20:55:26.992416","OBJECT_NAME":"STARLINK-1552","PERIOD":"95.591","MEAN_MOTION_DOT":"-0.00003778","RA_OF_ASC_NODE":"98.1746","REV_AT_EPOCH":"9167","DECAY_DATE":null,"NORAD_CAT_ID":"46076","RCS_SIZE":"LARGE","CENTER_NAME":"EARTH","ARG_OF_PERICENTER":"50.6944","TLE_LINE1":"1 46076U 20055BB  22085.87184019 -.00003778  00000-0 -23476-3 0  9992","FILE":"3375650","BSTAR":"-0.00023476000000","EPHEMERIS_TYPE":"0","SEMIMAJOR_AXIS":"6925.316","MEAN_ANOMALY":"309.4219","OBJECT_TYPE":"PAYLOAD","PERIAPSIS":"545.822","APOAPSIS":"548.541","TLE_LINE2":"2 46076  53.0544  98.1746 0001963  50.6944 309.4219 15.06410539 91673","LAUNCH_DATE":"2020-08-07","OBJECT_ID":"2020-055BB","TIME_SYSTEM":"UTC","CLASSIFICATION_TYPE":"U","COUNTRY_CODE":"US"},{"ELEMENT_SET_NO":"999","ECCENTRICITY":"0.00016040","MEAN_ELEMENT_THEORY":"SGP4","MEAN_MOTION":"15.06405842","OBJECT_NAME":"STARLINK-1559","EPOCH":"2022-03-26T07:44:35.409120","GP_ID":"199744407","MEAN_MOTION_DDOT":"0.0000000000000","INCLINATION":"53.0559","REF_FRAME":"TEME","SITE":"AFETR","TLE_LINE1":"1 46077U 20055BC  22085.32263205  .00000034  00000-0  21149-4 0  9994","ARG_OF_PERICENTER":"59.2807","CENTER_NAME":"EARTH","RCS_SIZE":"LARGE","NORAD_CAT_ID":"46077","DECAY_DATE":null,"REV_AT_EPOCH":"9156","PERIOD":"95.592","MEAN_MOTION_DOT":"0.00000034","RA_OF_ASC_NODE":"100.6248","SEMIMAJOR_AXIS":"6925.331","EPHEMERIS_TYPE":"0","FILE":"3375254","BSTAR":"0.00002114900000","PERIAPSIS":"546.085","APOAPSIS":"548.306","OBJECT_TYPE":"PAYLOAD","MEAN_ANOMALY":"300.8340","OBJECT_ID":"2020-055BC","LAUNCH_DATE":"2020-08-07","TLE_LINE2":"2 46077  53.0559 100.6248 0001604  59.2807 300.8340 15.06405842 91560","COUNTRY_CODE":"US","CLASSIFICATION_TYPE":"U","TIME_SYSTEM":"UTC"},{"EPHEMERIS_TYPE":"0","SEMIMAJOR_AXIS":"6925.367","BSTAR":"0.00010072000000","FILE":"3375650","MEAN_ANOMALY":"308.5575","OBJECT_TYPE":"PAYLOAD","PERIAPSIS":"545.971","APOAPSIS":"548.494","TLE_LINE2":"2 46078  53.0546  98.6591 0001821  51.5577 308.5575 15.06393837 91648","OBJECT_ID":"2020-055BD","LAUNCH_DATE":"2020-08-07","COUNTRY_CODE":"US","TIME_SYSTEM":"UTC","CLASSIFICATION_TYPE":"U","ELEMENT_SET_NO":"999","ECCENTRICITY":"0.00018210","MEAN_ELEMENT_THEORY":"SGP4","MEAN_MOTION":"15.06393837","MEAN_MOTION_DDOT":"0.0000000000000","GP_ID":"199778103","EPOCH":"2022-03-26T18:21:32.063616","OBJECT_NAME":"STARLINK-1563","REF_FRAME":"TEME","SITE":"AFETR","INCLINATION":"53.0546","RCS_SIZE":"LARGE","CENTER_NAME":"EARTH","ARG_OF_PERICENTER":"51.5577","TLE_LINE1":"1 46078U 20055BD  22085.76495444  .00001219  00000-0  10072-3 0  9993","PERIOD":"95.593","RA_OF_ASC_NODE":"98.6591","MEAN_MOTION_DOT":"0.00001219","DECAY_DATE":null,"REV_AT_EPOCH":"9164","NORAD_CAT_ID":"46078"}];
